NORAD_CAT_ID,OBJECT_NAME,OBJECT_TYPE,EPOCH,MEAN_MOTION,ECCENTRICITY,INCLINATION,RA_OF_ASC_NODE,ARG_OF_PERICENTER,MEAN_ANOMALY,BSTAR,MEAN_MOTION_DOT,MEAN_MOTION_DDOT,TLE_LINE0,TLE_LINE1,TLE_LINE2,SEMIMAJOR_AXIS,PERIOD,APOGEE,PERIGEE,DECAYED
55400.0,STARLINK-5632,PAYLOAD,2024-01-28 14:27:23,14.9833971,0.0002651,70.0002,208.6531,268.1126,91.9729,-1.1677e-05,-2.32e-06,0.0,0 STARLINK-5632,1 55400U 23014K   24028.60235062 -.00000232  00000-0 -11677-4 0  9999,2 55400  70.0002 208.6531 0002651 268.1126  91.9729 14.98339710 56553,6950.163,96.106,573.87,570.185,0.0
55400.0,STARLINK-5632,PAYLOAD,2024-01-28 19:15:47,14.98340021,0.000264,70.0001,208.1481,267.1701,92.9156,-7.5987e-06,-1.84e-06,0.0,0 STARLINK-5632,1 55400U 23014K   24028.80262878 -.00000184  00000-0 -75987-5 0  9997,2 55400  70.0001 208.1481 0002640 267.1701  92.9156 14.98340021 55648,6950.162,96.106,573.862,570.192,0.0
55400.0,STARLINK-5632,PAYLOAD,2024-01-28 20:51:55,14.98340248,0.0002642,70.0001,207.9798,267.667,92.4187,-5.6376e-06,-1.6e-06,0.0,0 STARLINK-5632,1 55400U 23014K   24028.86938811 -.00000160  00000-0 -56376-5 0  9995,2 55400  70.0001 207.9798 0002642 267.6670  92.4187 14.98340248 56593,6950.161,96.106,573.862,570.19,0.0
55400.0,STARLINK-5632,PAYLOAD,2024-01-29 22:30:03,14.98336723,0.0002486,70.0004,205.2871,266.9451,93.1424,-8.4286e-05,-1.099e-05,0.0,0 STARLINK-5632,1 55400U 23014K   24029.93754602 -.00001099  00000-0 -84286-4 0  9990,2 55400  70.0004 205.2871 0002486 266.9451  93.1424 14.98336723 55813,6950.172,96.107,573.765,570.309,0.0
55400.0,STARLINK-5632,PAYLOAD,2024-01-30 14:31:24,14.98333105,0.0002589,70.0,203.6037,265.7979,94.2884,-2.9352e-05,-4.43e-06,0.0,0 STARLINK-5632,1 55400U 23014K   24030.60514368 -.00000443  00000-0 -29352-4 0  9994,2 55400  70.0000 203.6037 0002589 265.7979  94.2884 14.98333105 56859,6950.183,96.107,573.848,570.249,0.0
55400.0,STARLINK-5632,PAYLOAD,2024-01-30 20:55:56,14.98331936,0.0002708,70.0,202.9306,268.9528,91.132,-4.4465e-05,-6.23e-06,0.0,0 STARLINK-5632,1 55400U 23014K   24030.87218442 -.00000623  00000-0 -44465-4 0  9999,2 55400  70.0000 202.9306 0002708 268.9528  91.1320 14.98331936 56893,6950.187,96.107,573.934,570.17,0.0
55400.0,STARLINK-5632,PAYLOAD,2024-01-31 11:21:09,14.98328918,0.0002739,70.0002,201.4168,268.0178,92.0667,7.0036e-06,-9e-08,0.0,0 STARLINK-5632,1 55400U 23014K   24031.47302378 -.00000009  00000-0  70036-5 0  9999,2 55400  70.0002 201.4168 0002739 268.0178  92.0667 14.98328918 56048,6950.196,96.107,573.965,570.158,0.0
55400.0,STARLINK-5632,PAYLOAD,2024-02-01 11:23:10,14.98327705,0.0002773,70.0003,198.8921,269.4159,90.6682,-7.4423e-06,-1.82e-06,0.0,0 STARLINK-5632,1 55400U 23014K   24032.47442593 -.00000182  00000-0 -74423-5 0  9991,2 55400  70.0003 198.8921 0002773 269.4159  90.6682 14.98327705 56197,6950.2,96.107,573.992,570.138,0.0
55400.0,STARLINK-5632,PAYLOAD,2024-02-01 20:59:58,14.98326374,0.0002845,70.0002,197.8819,271.6774,88.4059,-2.2894e-05,-3.66e-06,0.0,0 STARLINK-5632,1 55400U 23014K   24032.87498801 -.00000366  00000-0 -22894-4 0  9996,2 55400  70.0002 197.8819 0002845 271.6774  88.4059 14.98326374 57194,6950.204,96.107,574.046,570.092,0.0
55400.0,STARLINK-5632,PAYLOAD,2024-02-02 11:25:11,14.9832931,0.0003289,70.0007,196.3667,281.4345,78.6445,3.0947e-05,2.76e-06,0.0,0 STARLINK-5632,1 55400U 23014K   24033.47582512  .00000276  00000-0  30947-4 0  9992,2 55400  70.0007 196.3667 0003289 281.4345  78.6445 14.98329310 56349,6950.195,96.107,574.346,569.774,0.0
55400.0,STARLINK-5632,PAYLOAD,2024-02-02 14:37:27,14.98330212,0.000324,70.0003,196.0295,279.1733,80.906,3.8512e-05,3.67e-06,0.0,0 STARLINK-5632,1 55400U 23014K   24033.60934416  .00000367  00000-0  38512-4 0  9998,2 55400  70.0003 196.0295 0003240 279.1733  80.9060 14.98330212 57300,6950.192,96.107,574.309,569.805,0.0
55400.0,STARLINK-5632,PAYLOAD,2024-02-02 19:25:51,14.98334552,0.000306,69.9999,195.5238,276.8607,83.2204,7.753e-05,8.32e-06,0.0,0 STARLINK-5632,1 55400U 23014K   24033.80961981  .00000832  00000-0  77530-4 0  9997,2 55400  69.9999 195.5238 0003060 276.8607  83.2204 14.98334552 56391,6950.179,96.107,574.171,569.917,0.0
55400.0,STARLINK-5632,PAYLOAD,2024-02-02 21:01:59,14.98335358,0.0003034,70.0001,195.3558,275.9387,84.1426,8.4329e-05,9.13e-06,0.0,0 STARLINK-5632,1 55400U 23014K   24033.87637886  .00000913  00000-0  84329-4 0  9992,2 55400  70.0001 195.3558 0003034 275.9387  84.1426 14.98335358 57344,6950.176,96.107,574.15,569.933,0.0
55400.0,STARLINK-5632,PAYLOAD,2024-02-03 11:27:12,14.9832654,0.0002801,70.0008,193.8417,272.7628,87.3211,2.7546e-05,2.36e-06,0.0,0 STARLINK-5632,1 55400U 23014K   24034.47722562  .00000236  00000-0  27546-4 0  9991,2 55400  70.0008 193.8417 0002801 272.7628  87.3211 14.98326540 56497,6950.204,96.107,574.015,570.122,0.0
55400.0,STARLINK-5632,PAYLOAD,2024-02-03 13:03:20,14.98326082,0.0002817,70.0007,193.6734,272.2792,87.8044,1.9554e-05,1.4e-06,0.0,0 STARLINK-5632,1 55400U 23014K   24034.54398617  .00000140  00000-0  19554-4 0  9993,2 55400  70.0007 193.6734 0002817 272.2792  87.8044 14.98326082 57446,6950.205,96.107,574.028,570.112,0.0
55400.0,STARLINK-5632,PAYLOAD,2024-02-03 19:27:52,14.98325972,0.0002823,70.0007,193.0001,271.2362,88.8473,1.5e-05,8.6e-07,0.0,0 STARLINK-5632,1 55400U 23014K   24034.81102679  .00000086  00000-0  15000-4 0  9995,2 55400  70.0007 193.0001 0002823 271.2362  88.8473 14.98325972 57484,6950.205,96.107,574.032,570.108,0.0
55400.0,STARLINK-5632,PAYLOAD,2024-02-04 11:29:12,14.98337636,0.0002919,70.0004,191.3163,269.0931,90.9893,1.6208e-05,1e-06,0.0,0 STARLINK-5632,1 55400U 23014K   24035.47861853  .00000100  00000-0  16208-4 0  9992,2 55400  70.0004 191.3163 0002919 269.0931  90.9893 14.98337636 56641,6950.169,96.107,574.063,570.006,0.0
55400.0,STARLINK-5632,PAYLOAD,2024-02-04 14:41:28,14.98337875,0.0002919,70.0005,190.9796,269.2181,90.8643,1.9287e-05,1.37e-06,0.0,0 STARLINK-5632,1 55400U 23014K   24035.61213765  .00000137  00000-0  19287-4 0  9991,2 55400  70.0005 190.9796 0002919 269.2181  90.8643 14.98337875 57602,6950.169,96.106,574.062,570.005,0.0
55400.0,STARLINK-5632,PAYLOAD,2024-02-04 19:29:52,14.98337326,0.0002943,70.0006,190.4748,269.3034,90.7788,1.2687e-05,5.8e-07,0.0,0 STARLINK-5632,1 55400U 23014K   24035.81241730  .00000058  00000-0  12687-4 0  9995,2 55400  70.0006 190.4748 0002943 269.3034  90.7788 14.98337326 57633,6950.17,96.107,574.081,569.99,0.0
55400.0,STARLINK-5632,PAYLOAD,2024-02-05 11:31:13,14.98329005,0.0003027,70.0005,188.7913,270.1709,89.9103,1.2575e-05,5.7e-07,0.0,0 STARLINK-5632,1 55400U 23014K   24036.48002091  .00000057  00000-0  12575-4 0  9999,2 55400  70.0005 188.7913 0003027 270.1709  89.9103 14.98329005 56791,6950.196,96.107,574.165,569.957,0.0
55400.0,STARLINK-5632,PAYLOAD,2024-02-05 14:43:29,14.98328427,0.000304,70.0004,188.4548,269.9443,90.1367,5.3942e-06,-2.9e-07,0.0,0 STARLINK-5632,1 55400U 23014K   24036.61354146 -.00000029  00000-0  53942-5 0  9999,2 55400  70.0004 188.4548 0003040 269.9443  90.1367 14.98328427 57757,6950.198,96.107,574.176,569.95,0.0
55400.0,STARLINK-5632,PAYLOAD,2024-02-05 17:55:46,14.98328625,0.0003039,70.0005,188.1183,269.8759,90.2051,6.9533e-06,-1e-07,0.0,0 STARLINK-5632,1 55400U 23014K   24036.74706133 -.00000010  00000-0  69533-5 0  9993,2 55400  70.0005 188.1183 0003039 269.8759  90.2051 14.98328625 57770,6950.197,96.107,574.174,569.95,0.0
55400.0,STARLINK-5632,PAYLOAD,2024-02-06 11:33:14,14.98333704,0.0002965,70.001,186.2683,267.1913,92.8906,-2.8051e-05,-4.28e-06,0.0,0 STARLINK-5632,1 55400U 23014K   24037.48141826 -.00000428  00000-0 -28051-4 0  9990,2 55400  70.0010 186.2683 0002965 267.1913  92.8906 14.98333704 56949,6950.181,96.107,574.107,569.986,0.0
55400.0,STARLINK-5632,PAYLOAD,2024-02-06 13:09:22,14.9833381,0.0002967,70.0011,186.1,267.2224,92.8595,-2.6276e-05,-4.07e-06,0.0,0 STARLINK-5632,1 55400U 23014K   24037.54817795 -.00000407  00000-0 -26276-4 0  9996,2 55400  70.0011 186.1000 0002967 267.2224  92.8595 14.98333810 57897,6950.181,96.107,574.108,569.984,0.0
55400.0,STARLINK-5632,PAYLOAD,2024-02-06 19:33:54,14.98335886,0.0002863,70.0014,185.4275,261.4065,98.677,-1.7114e-06,-1.13e-06,0.0,0 STARLINK-5632,1 55400U 23014K   24037.81521492 -.00000113  00000-0 -17114-5 0  9998,2 55400  70.0014 185.4275 0002863 261.4065  98.6770 14.98335886 57939,6950.175,96.107,574.03,570.05,0.0
55400.0,STARLINK-5632,PAYLOAD,2024-02-07 11:35:15,14.98323954,0.0002769,70.0017,183.7442,256.7346,103.3504,-3.3088e-05,-4.88e-06,0.0,0 STARLINK-5632,1 55400U 23014K   24038.48282282 -.00000488  00000-0 -33088-4 0  9995,2 55400  70.0017 183.7442 0002769 256.7346 103.3504 14.98323954 57092,6950.212,96.107,574.001,570.152,0.0
55400.0,STARLINK-5632,PAYLOAD,2024-02-07 14:47:32,14.98323944,0.0002763,70.0017,183.4076,256.4186,103.6665,-3.1149e-05,-4.65e-06,0.0,0 STARLINK-5632,1 55400U 23014K   24038.61634322 -.00000465  00000-0 -31149-4 0  9997,2 55400  70.0017 183.4076 0002763 256.4186 103.6665 14.98323944 58052,6950.212,96.107,573.997,570.156,0.0
55400.0,STARLINK-5632,PAYLOAD,2024-02-07 19:35:56,14.9832708,0.0002726,70.0017,182.9027,255.9073,104.1783,6.3804e-06,-1.7e-07,0.0,0 STARLINK-5632,1 55400U 23014K   24038.81662062 -.00000017  00000-0  63804-5 0  9997,2 55400  70.0017 182.9027 0002726 255.9073 104.1783 14.98327080 58085,6950.202,96.107,573.962,570.172,0.0
55400.0,STARLINK-5632,PAYLOAD,2024-02-08 11:37:16,14.983334,0.0002704,70.0017,181.2192,259.4382,100.6472,2.0128e-05,1.47e-06,0.0,0 STARLINK-5632,1 55400U 23014K   24039.48421618  .00000147  00000-0  20128-4 0  9995,2 55400  70.0017 181.2192 0002704 259.4382 100.6472 14.98333400 57244,6950.182,96.107,573.927,570.168,0.0
55400.0,STARLINK-5632,PAYLOAD,2024-02-08 14:49:32,14.98332478,0.0002748,70.0013,180.8816,264.4383,95.6463,1.2379e-05,5.5e-07,0.0,0 STARLINK-5632,1 55400U 23014K   24039.61773709  .00000055  00000-0  12379-4 0  9998,2 55400  70.0013 180.8816 0002748 264.4383  95.6463 14.98332478 58207,6950.185,96.107,573.96,570.14,0.0
